{
    "links": {
        "self": "http://www.neowsapp.com/rest/v1/neo/3620468?api_key=iIulBulltgU6a56xZRHN4H3l9WmuAYTsLGpBGhQ2"
    },
    "id": "3620468",
    "neo_reference_id": "3620468",
    "name": "(2012 XR93)",
    "designation": "2012 XR93",
    "nasa_jpl_url": "http://ssd.jpl.nasa.gov/sbdb.cgi?sstr=3620468",
    "absolute_magnitude_h": 21.8,
    "estimated_diameter": {
        "kilometers": {
            "estimated_diameter_min": 0.1160259082,
            "estimated_diameter_max": 0.2594418179
        },
        "meters": {
            "estimated_diameter_min": 116.0259082094,
            "estimated_diameter_max": 259.4418179074
        },
        "miles": {
            "estimated_diameter_min": 0.0720951346,
            "estimated_diameter_max": 0.1612096218
        },
        "feet": {
            "estimated_diameter_min": 380.6624406898,
            "estimated_diameter_max": 851.1870938635
        }
    },
    "is_potentially_hazardous_asteroid": false,
    "close_approach_data": [
        {
            "close_approach_date": "2012-11-25",
            "close_approach_date_full": "2012-Nov-25 19:30",
            "epoch_date_close_approach": 1353871800000,
            "relative_velocity": {
                "kilometers_per_second": "6.6116471921",
                "kilometers_per_hour": "23801.9298915649",
                "miles_per_hour": "14789.5936040116"
            },
            "miss_distance": {
                "astronomical": "0.2340173296",
                "lunar": "91.0327412144",
                "kilometers": "35008494.051247952",
                "miles": "21753269.4909356576"
            },
            "orbiting_body": "Earth"
        },
        {
            "close_approach_date": "2055-11-28",
            "close_approach_date_full": "2055-Nov-28 17:40",
            "epoch_date_close_approach": 2711036400000,
            "relative_velocity": {
                "kilometers_per_second": "9.0361689655",
                "kilometers_per_hour": "32530.2082756578",
                "miles_per_hour": "20213.0063588386"
            },
            "miss_distance": {
                "astronomical": "0.3265980084",
                "lunar": "127.0466252676",
                "kilometers": "48858366.402882108",
                "miles": "30359181.1088167704"
            },
            "orbiting_body": "Earth"
        }
    ],
    "orbital_data": {
        "orbit_id": "9",
        "orbit_determination_date": "2017-04-06 08:47:42",
        "first_observation_date": "2012-12-08",
        "last_observation_date": "2013-01-18",
        "data_arc_in_days": 41,
        "observations_used": 82,
        "orbit_uncertainty": "6",
        "minimum_orbit_intersection": ".23621",
        "jupiter_tisserand_invariant": "3.261",
        "epoch_osculation": "2459000.5",
        "eccentricity": ".5104111344512012",
        "semi_major_axis": "2.484342313118006",
        "inclination": "10.91765652393921",
        "ascending_node_longitude": "257.3226346849859",
        "orbital_period": "1430.261937741683",
        "perihelion_distance": "1.216306334714323",
        "perihelion_argument": "161.9168244866032",
        "aphelion_distance": "3.752378291521689",
        "perihelion_time": "2459118.166366337230",
        "mean_anomaly": "330.3831230045266",
        "mean_motion": ".2517021466490419",
        "equinox": "J2000",
        "orbit_class": {
            "orbit_class_type": "AMO",
            "orbit_class_description": "Near-Earth asteroid orbits similar to that of 1221 Amor",
            "orbit_class_range": "1.017 AU < q (perihelion) < 1.3 AU"
        }
    },
    "is_sentry_object": false
}